[Satellite]
VERSION=1.1
NAME=GSAT0217 (PRN E27)
NICKNAME=GSAT0217 (PRN E27)
TLE1=1 43057U 17079C   22341.97854202 -.00000013  00000+0  00000+0 0  9995
TLE2=2 43057  55.6354 256.9472 0004295 317.3144  42.6932  1.70473783 31041
STATUS=0
